[
  {
    "OBJECT_NAME": "STARLINK-6088",
    "OBJECT_ID": "23046F",
    "EPOCH": "2025-11-11T01:25:28.437888",
    "MEAN_MOTION": 15.02540758,
    "ECCENTRICITY": 0.0001443,
    "INCLINATION": 43.0037,
    "RA_OF_ASC_NODE": 83.8327,
    "ARG_OF_PERICENTER": 268.591,
    "MEAN_ANOMALY": 91.4767,
    "EPHEMERIS_TYPE": 0,
    "CLASSIFICATION_TYPE": "U",
    "NORAD_CAT_ID": 56098,
    "ELEMENT_SET_NO": 999,
    "REV_AT_EPOCH": 14421,
    "BSTAR": 0.00012302,
    "MEAN_MOTION_DOT": 1.459e-05,
    "MEAN_MOTION_DDOT": 0.0,
    "TLE_LINE1": "1 56098U 23046F   25315.05935692  .00001459  00000+0  12302-3 0  9997",
    "TLE_LINE2": "2 56098  43.0037  83.8327 0001443 268.5910  91.4767 15.02540758144214",
    "COMMENT": "Grouped by shell and plane from TLE"
  },
  {
    "OBJECT_NAME": "STARLINK-6076",
    "OBJECT_ID": "23046H",
    "EPOCH": "2025-11-10T15:28:43.780224",
    "MEAN_MOTION": 15.02535906,
    "ECCENTRICITY": 0.0001379,
    "INCLINATION": 43.0047,
    "RA_OF_ASC_NODE": 85.8854,
    "ARG_OF_PERICENTER": 261.3561,
    "MEAN_ANOMALY": 98.7125,
    "EPHEMERIS_TYPE": 0,
    "CLASSIFICATION_TYPE": "U",
    "NORAD_CAT_ID": 56100,
    "ELEMENT_SET_NO": 999,
    "REV_AT_EPOCH": 14415,
    "BSTAR": 0.00012486,
    "MEAN_MOTION_DOT": 1.483e-05,
    "MEAN_MOTION_DDOT": 0.0,
    "TLE_LINE1": "1 56100U 23046H   25314.64495116  .00001483  00000+0  12486-3 0  9997",
    "TLE_LINE2": "2 56100  43.0047  85.8854 0001379 261.3561  98.7125 15.02535906144157",
    "COMMENT": "Grouped by shell and plane from TLE"
  },
  {
    "OBJECT_NAME": "STARLINK-6095",
    "OBJECT_ID": "23046J",
    "EPOCH": "2025-11-10T15:27:07.515936",
    "MEAN_MOTION": 15.0254631,
    "ECCENTRICITY": 0.0001217,
    "INCLINATION": 43.0044,
    "RA_OF_ASC_NODE": 85.8788,
    "ARG_OF_PERICENTER": 270.7019,
    "MEAN_ANOMALY": 89.3684,
    "EPHEMERIS_TYPE": 0,
    "CLASSIFICATION_TYPE": "U",
    "NORAD_CAT_ID": 56101,
    "ELEMENT_SET_NO": 999,
    "REV_AT_EPOCH": 14415,
    "BSTAR": 0.00016871,
    "MEAN_MOTION_DOT": 2.077e-05,
    "MEAN_MOTION_DDOT": 0.0,
    "TLE_LINE1": "1 56101U 23046J   25314.64383699  .00002077  00000+0  16871-3 0  9992",
    "TLE_LINE2": "2 56101  43.0044  85.8788 0001217 270.7019  89.3684 15.02546310144151",
    "COMMENT": "Grouped by shell and plane from TLE"
  },
  {
    "OBJECT_NAME": "STARLINK-6075",
    "OBJECT_ID": "23046K",
    "EPOCH": "2025-11-10T15:19:07.792896",
    "MEAN_MOTION": 15.02540857,
    "ECCENTRICITY": 0.0001224,
    "INCLINATION": 43.0029,
    "RA_OF_ASC_NODE": 85.8345,
    "ARG_OF_PERICENTER": 269.4073,
    "MEAN_ANOMALY": 90.6629,
    "EPHEMERIS_TYPE": 0,
    "CLASSIFICATION_TYPE": "U",
    "NORAD_CAT_ID": 56102,
    "ELEMENT_SET_NO": 999,
    "REV_AT_EPOCH": 14415,
    "BSTAR": 8.0148e-05,
    "MEAN_MOTION_DOT": 8.79e-06,
    "MEAN_MOTION_DDOT": 0.0,
    "TLE_LINE1": "1 56102U 23046K   25314.63828464  .00000879  00000+0  80148-4 0  9993",
    "TLE_LINE2": "2 56102  43.0029  85.8345 0001224 269.4073  90.6629 15.02540857144151",
    "COMMENT": "Grouped by shell and plane from TLE"
  },
  {
    "OBJECT_NAME": "STARLINK-6096",
    "OBJECT_ID": "23046L",
    "EPOCH": "2025-11-10T10:35:09.123648",
    "MEAN_MOTION": 15.02532125,
    "ECCENTRICITY": 0.0001568,
    "INCLINATION": 43.0052,
    "RA_OF_ASC_NODE": 86.9323,
    "ARG_OF_PERICENTER": 278.0721,
    "MEAN_ANOMALY": 81.9943,
    "EPHEMERIS_TYPE": 0,
    "CLASSIFICATION_TYPE": "U",
    "NORAD_CAT_ID": 56103,
    "ELEMENT_SET_NO": 999,
    "REV_AT_EPOCH": 14412,
    "BSTAR": 0.00010532,
    "MEAN_MOTION_DOT": 1.219e-05,
    "MEAN_MOTION_DDOT": 0.0,
    "TLE_LINE1": "1 56103U 23046L   25314.44107782  .00001219  00000+0  10532-3 0  9994",
    "TLE_LINE2": "2 56103  43.0052  86.9323 0001568 278.0721  81.9943 15.02532125144121",
    "COMMENT": "Grouped by shell and plane from TLE"
  },
  {
    "OBJECT_NAME": "STARLINK-6062",
    "OBJECT_ID": "23046M",
    "EPOCH": "2025-11-10T15:23:57.013440",
    "MEAN_MOTION": 15.02544374,
    "ECCENTRICITY": 9.87e-05,
    "INCLINATION": 43.0046,
    "RA_OF_ASC_NODE": 85.857,
    "ARG_OF_PERICENTER": 316.0101,
    "MEAN_ANOMALY": 44.0663,
    "EPHEMERIS_TYPE": 0,
    "CLASSIFICATION_TYPE": "U",
    "NORAD_CAT_ID": 56104,
    "ELEMENT_SET_NO": 999,
    "REV_AT_EPOCH": 14415,
    "BSTAR": 0.00025958,
    "MEAN_MOTION_DOT": 3.305e-05,
    "MEAN_MOTION_DDOT": 0.0,
    "TLE_LINE1": "1 56104U 23046M   25314.64163210  .00003305  00000+0  25958-3 0  9991",
    "TLE_LINE2": "2 56104  43.0046  85.8570 0000987 316.0101  44.0663 15.02544374144157",
    "COMMENT": "Grouped by shell and plane from TLE"
  },
  {
    "OBJECT_NAME": "STARLINK-6066",
    "OBJECT_ID": "23046N",
    "EPOCH": "2025-11-11T02:14:50.882208",
    "MEAN_MOTION": 15.0254005,
    "ECCENTRICITY": 0.0001305,
    "INCLINATION": 43.0036,
    "RA_OF_ASC_NODE": 83.2285,
    "ARG_OF_PERICENTER": 268.367,
    "MEAN_ANOMALY": 91.7023,
    "EPHEMERIS_TYPE": 0,
    "CLASSIFICATION_TYPE": "U",
    "NORAD_CAT_ID": 56105,
    "ELEMENT_SET_NO": 999,
    "REV_AT_EPOCH": 14422,
    "BSTAR": 0.00010835,
    "MEAN_MOTION_DOT": 1.26e-05,
    "MEAN_MOTION_DDOT": 0.0,
    "TLE_LINE1": "1 56105U 23046N   25315.09364447  .00001260  00000+0  10835-3 0  9993",
    "TLE_LINE2": "2 56105  43.0036  83.2285 0001305 268.3670  91.7023 15.02540050144221",
    "COMMENT": "Grouped by shell and plane from TLE"
  },
  {
    "OBJECT_NAME": "STARLINK-6030",
    "OBJECT_ID": "23046Q",
    "EPOCH": "2025-11-10T10:09:34.955136",
    "MEAN_MOTION": 15.02536999,
    "ECCENTRICITY": 0.000131,
    "INCLINATION": 43.0038,
    "RA_OF_ASC_NODE": 86.7966,
    "ARG_OF_PERICENTER": 273.609,
    "MEAN_ANOMALY": 86.4602,
    "EPHEMERIS_TYPE": 0,
    "CLASSIFICATION_TYPE": "U",
    "NORAD_CAT_ID": 56107,
    "ELEMENT_SET_NO": 999,
    "REV_AT_EPOCH": 14412,
    "BSTAR": 0.0001046,
    "MEAN_MOTION_DOT": 1.21e-05,
    "MEAN_MOTION_DDOT": 0.0,
    "TLE_LINE1": "1 56107U 23046Q   25314.42332124  .00001210  00000+0  10460-3 0  9997",
    "TLE_LINE2": "2 56107  43.0038  86.7966 0001310 273.6090  86.4602 15.02536999144120",
    "COMMENT": "Grouped by shell and plane from TLE"
  },
  {
    "OBJECT_NAME": "STARLINK-6081",
    "OBJECT_ID": "23046R",
    "EPOCH": "2025-11-10T15:17:32.472096",
    "MEAN_MOTION": 15.02541086,
    "ECCENTRICITY": 0.0001259,
    "INCLINATION": 43.0032,
    "RA_OF_ASC_NODE": 85.8243,
    "ARG_OF_PERICENTER": 270.3764,
    "MEAN_ANOMALY": 89.6934,
    "EPHEMERIS_TYPE": 0,
    "CLASSIFICATION_TYPE": "U",
    "NORAD_CAT_ID": 56108,
    "ELEMENT_SET_NO": 999,
    "REV_AT_EPOCH": 14415,
    "BSTAR": 0.00014827000000000002,
    "MEAN_MOTION_DOT": 1.8e-05,
    "MEAN_MOTION_DDOT": 0.0,
    "TLE_LINE1": "1 56108U 23046R   25314.63718139  .00001800  00000+0  14827-3 0  9991",
    "TLE_LINE2": "2 56108  43.0032  85.8243 0001259 270.3764  89.6934 15.02541086144156",
    "COMMENT": "Grouped by shell and plane from TLE"
  },
  {
    "OBJECT_NAME": "STARLINK-6083",
    "OBJECT_ID": "23046S",
    "EPOCH": "2025-11-11T02:11:39.275520",
    "MEAN_MOTION": 15.02539655,
    "ECCENTRICITY": 0.0001299,
    "INCLINATION": 43.0049,
    "RA_OF_ASC_NODE": 83.212,
    "ARG_OF_PERICENTER": 265.9218,
    "MEAN_ANOMALY": 94.1476,
    "EPHEMERIS_TYPE": 0,
    "CLASSIFICATION_TYPE": "U",
    "NORAD_CAT_ID": 56109,
    "ELEMENT_SET_NO": 999,
    "REV_AT_EPOCH": 14422,
    "BSTAR": 0.00012669,
    "MEAN_MOTION_DOT": 1.508e-05,
    "MEAN_MOTION_DDOT": 0.0,
    "TLE_LINE1": "1 56109U 23046S   25315.09142680  .00001508  00000+0  12669-3 0  9992",
    "TLE_LINE2": "2 56109  43.0049  83.2120 0001299 265.9218  94.1476 15.02539655144228",
    "COMMENT": "Grouped by shell and plane from TLE"
  },
  {
    "OBJECT_NAME": "STARLINK-6082",
    "OBJECT_ID": "23046T",
    "EPOCH": "2025-11-10T15:09:32.946912",
    "MEAN_MOTION": 15.02538893,
    "ECCENTRICITY": 0.0001496,
    "INCLINATION": 43.0033,
    "RA_OF_ASC_NODE": 85.7843,
    "ARG_OF_PERICENTER": 275.695,
    "MEAN_ANOMALY": 84.3721,
    "EPHEMERIS_TYPE": 0,
    "CLASSIFICATION_TYPE": "U",
    "NORAD_CAT_ID": 56110,
    "ELEMENT_SET_NO": 999,
    "REV_AT_EPOCH": 14415,
    "BSTAR": 2.3230000000000003e-05,
    "MEAN_MOTION_DOT": 1.1e-06,
    "MEAN_MOTION_DDOT": 0.0,
    "TLE_LINE1": "1 56110U 23046T   25314.63163133  .00000110  00000+0  23230-4 0  9994",
    "TLE_LINE2": "2 56110  43.0033  85.7843 0001496 275.6950  84.3721 15.02538893144151",
    "COMMENT": "Grouped by shell and plane from TLE"
  },
  {
    "OBJECT_NAME": "STARLINK-6084",
    "OBJECT_ID": "23046U",
    "EPOCH": "2025-11-11T01:50:52.330848",
    "MEAN_MOTION": 15.02540323,
    "ECCENTRICITY": 0.0001324,
    "INCLINATION": 43.0045,
    "RA_OF_ASC_NODE": 83.1009,
    "ARG_OF_PERICENTER": 268.6449,
    "MEAN_ANOMALY": 91.4242,
    "EPHEMERIS_TYPE": 0,
    "CLASSIFICATION_TYPE": "U",
    "NORAD_CAT_ID": 56111,
    "ELEMENT_SET_NO": 999,
    "REV_AT_EPOCH": 14422,
    "BSTAR": 0.00010567,
    "MEAN_MOTION_DOT": 1.224e-05,
    "MEAN_MOTION_DDOT": 0.0,
    "TLE_LINE1": "1 56111U 23046U   25315.07699457  .00001224  00000+0  10567-3 0  9992",
    "TLE_LINE2": "2 56111  43.0045  83.1009 0001324 268.6449  91.4242 15.02540323144222",
    "COMMENT": "Grouped by shell and plane from TLE"
  },
  {
    "OBJECT_NAME": "STARLINK-6080",
    "OBJECT_ID": "23046V",
    "EPOCH": "2025-11-10T18:00:13.837824",
    "MEAN_MOTION": 15.02534898,
    "ECCENTRICITY": 0.0001209,
    "INCLINATION": 43.0024,
    "RA_OF_ASC_NODE": 84.9475,
    "ARG_OF_PERICENTER": 265.5056,
    "MEAN_ANOMALY": 94.5648,
    "EPHEMERIS_TYPE": 0,
    "CLASSIFICATION_TYPE": "U",
    "NORAD_CAT_ID": 56112,
    "ELEMENT_SET_NO": 999,
    "REV_AT_EPOCH": 14417,
    "BSTAR": 5.3367e-05,
    "MEAN_MOTION_DOT": 5.17e-06,
    "MEAN_MOTION_DDOT": 0.0,
    "TLE_LINE1": "1 56112U 23046V   25314.75016016  .00000517  00000+0  53367-4 0  9991",
    "TLE_LINE2": "2 56112  43.0024  84.9475 0001209 265.5056  94.5648 15.02534898144176",
    "COMMENT": "Grouped by shell and plane from TLE"
  }
]